{
  "type": "FeatureCollection",
  "features": [
    {
      "type": "Feature",
      "properties": {
        "norad_id": 32275,
        "name": "COSMOS 2433 (720)",
        "group": "glo-ops",
        "lat": -62.31759971519697,
        "lon": -158.5988756857463,
        "alt_km": 19123.002434787042,
        "timestamp": "2025-12-21T09:37:22.915480+00:00",
        "meta_object_name": "COSMOS 2433 (720)",
        "meta_object_id": "2007-052A",
        "meta_epoch": "2025-12-21T01:36:08.610912",
        "meta_mean_motion": 2.13104226,
        "meta_eccentricity": 0.0005187,
        "meta_inclination": 65.6786,
        "meta_ra_of_asc_node": 321.9257,
        "meta_arg_of_pericenter": 255.4545,
        "meta_mean_anomaly": 104.4812,
        "meta_ephemeris_type": 0,
        "meta_classification_type": "U",
        "meta_norad_cat_id": 32275,
        "meta_element_set_no": 999,
        "meta_rev_at_epoch": 14126,
        "meta_bstar": 0,
        "meta_mean_motion_dot": -4.8e-07,
        "meta_mean_motion_ddot": 0,
        "tle_line1": "1 32275U 07052A   25355.06676633 -.00000048  00000+0  00000+0 0  9991",
        "tle_line2": "2 32275  65.6786 321.9257 0005187 255.4545 104.4812  2.13104226141264"
      },
      "geometry": {
        "type": "Point",
        "coordinates": [
          -158.5988756857463,
          -62.31759971519697
        ]
      }
    },
    {
      "type": "Feature",
      "properties": {
        "norad_id": 32276,
        "name": "COSMOS 2432 (719)",
        "group": "glo-ops",
        "lat": -18.79604743600343,
        "lon": 150.86551789389702,
        "alt_km": 19144.215351818824,
        "timestamp": "2025-12-21T09:37:22.915504+00:00",
        "meta_object_name": "COSMOS 2432 (719)",
        "meta_object_id": "2007-052B",
        "meta_epoch": "2025-12-21T05:56:02.961600",
        "meta_mean_motion": 2.13103424,
        "meta_eccentricity": 0.0011337,
        "meta_inclination": 65.6945,
        "meta_ra_of_asc_node": 322.044,
        "meta_arg_of_pericenter": 314.296,
        "meta_mean_anomaly": 128.5462,
        "meta_ephemeris_type": 0,
        "meta_classification_type": "U",
        "meta_norad_cat_id": 32276,
        "meta_element_set_no": 999,
        "meta_rev_at_epoch": 14129,
        "meta_bstar": 0,
        "meta_mean_motion_dot": -4.7e-07,
        "meta_mean_motion_ddot": 0,
        "tle_line1": "1 32276U 07052B   25355.24725650 -.00000047  00000+0  00000+0 0  9995",
        "tle_line2": "2 32276  65.6945 322.0440 0011337 314.2960 128.5462  2.13103424141297"
      },
      "geometry": {
        "type": "Point",
        "coordinates": [
          150.86551789389702,
          -18.79604743600343
        ]
      }
    },
    {
      "type": "Feature",
      "properties": {
        "norad_id": 32393,
        "name": "COSMOS 2434 (721)",
        "group": "glo-ops",
        "lat": 29.42911992704882,
        "lon": 2.1534068192891542,
        "alt_km": 19123.461350070498,
        "timestamp": "2025-12-21T09:37:22.915519+00:00",
        "meta_object_name": "COSMOS 2434 (721)",
        "meta_object_id": "2007-065A",
        "meta_epoch": "2025-12-20T12:03:15.367680",
        "meta_mean_motion": 2.13101459,
        "meta_eccentricity": 0.00047811,
        "meta_inclination": 64.3153,
        "meta_ra_of_asc_node": 197.9412,
        "meta_arg_of_pericenter": 71.786,
        "meta_mean_anomaly": 105.6785,
        "meta_ephemeris_type": 0,
        "meta_classification_type": "U",
        "meta_norad_cat_id": 32393,
        "meta_element_set_no": 999,
        "meta_rev_at_epoch": 13996,
        "meta_bstar": 0,
        "meta_mean_motion_dot": 1e-06,
        "meta_mean_motion_ddot": 0,
        "tle_line1": "1 32393U 07065A   25354.50226120  .00000100  00000+0  00000+0 0  9994",
        "tle_line2": "2 32393  64.3153 197.9412 0004781  71.7860 105.6785  2.13101459139962"
      },
      "geometry": {
        "type": "Point",
        "coordinates": [
          2.1534068192891542,
          29.42911992704882
        ]
      }
    },
    {
      "type": "Feature",
      "properties": {
        "norad_id": 32395,
        "name": "COSMOS 2436 (723)",
        "group": "glo-ops",
        "lat": -62.642636721921896,
        "lon": 129.50890247894858,
        "alt_km": 19136.744410585285,
        "timestamp": "2025-12-21T09:37:22.915547+00:00",
        "meta_object_name": "COSMOS 2436 (723)",
        "meta_object_id": "2007-065C",
        "meta_epoch": "2025-12-21T05:24:13.396320",
        "meta_mean_motion": 2.13100316,
        "meta_eccentricity": 0.0017785,
        "meta_inclination": 64.3243,
        "meta_ra_of_asc_node": 197.9873,
        "meta_arg_of_pericenter": 10.0202,
        "meta_mean_anomaly": 135.0649,
        "meta_ephemeris_type": 0,
        "meta_classification_type": "U",
        "meta_norad_cat_id": 32395,
        "meta_element_set_no": 999,
        "meta_rev_at_epoch": 13993,
        "meta_bstar": 0,
        "meta_mean_motion_dot": 9.7e-07,
        "meta_mean_motion_ddot": 0,
        "tle_line1": "1 32395U 07065C   25355.22515505  .00000097  00000+0  00000+0 0  9999",
        "tle_line2": "2 32395  64.3243 197.9873 0017785  10.0202 135.0649  2.13100316139933"
      },
      "geometry": {
        "type": "Point",
        "coordinates": [
          129.50890247894858,
          -62.642636721921896
        ]
      }
    },
    {
      "type": "Feature",
      "properties": {
        "norad_id": 36111,
        "name": "COSMOS 2456 (730)",
        "group": "glo-ops",
        "lat": -48.65495456524396,
        "lon": 44.93727307010765,
        "alt_km": 19127.09705393786,
        "timestamp": "2025-12-21T09:37:22.915562+00:00",
        "meta_object_name": "COSMOS 2456 (730)",
        "meta_object_id": "2009-070A",
        "meta_epoch": "2025-12-20T03:13:18.516576",
        "meta_mean_motion": 2.13103685,
        "meta_eccentricity": 0.00033011,
        "meta_inclination": 64.904,
        "meta_ra_of_asc_node": 77.0852,
        "meta_arg_of_pericenter": 296.9564,
        "meta_mean_anomaly": 115.2996,
        "meta_ephemeris_type": 0,
        "meta_classification_type": "U",
        "meta_norad_cat_id": 36111,
        "meta_element_set_no": 999,
        "meta_rev_at_epoch": 12461,
        "meta_bstar": 0,
        "meta_mean_motion_dot": -2.2e-07,
        "meta_mean_motion_ddot": 0,
        "tle_line1": "1 36111U 09070A   25354.13424209 -.00000022  00000+0  00000+0 0  9995",
        "tle_line2": "2 36111  64.9040  77.0852 0003301 296.9564 115.2996  2.13103685124610"
      },
      "geometry": {
        "type": "Point",
        "coordinates": [
          44.93727307010765,
          -48.65495456524396
        ]
      }
    },
    {
      "type": "Feature",
      "properties": {
        "norad_id": 36112,
        "name": "COSMOS 2457 (733)",
        "group": "glo-ops",
        "lat": 60.025465287778864,
        "lon": 131.1627642381147,
        "alt_km": 19123.247388380783,
        "timestamp": "2025-12-21T09:37:22.915574+00:00",
        "meta_object_name": "COSMOS 2457 (733)",
        "meta_object_id": "2009-070B",
        "meta_epoch": "2025-12-21T01:50:33.569952",
        "meta_mean_motion": 2.13101099,
        "meta_eccentricity": 0.0004535,
        "meta_inclination": 64.8901,
        "meta_ra_of_asc_node": 76.9001,
        "meta_arg_of_pericenter": 162.2695,
        "meta_mean_anomaly": 22.1351,
        "meta_ephemeris_type": 0,
        "meta_classification_type": "U",
        "meta_norad_cat_id": 36112,
        "meta_element_set_no": 999,
        "meta_rev_at_epoch": 12463,
        "meta_bstar": 0,
        "meta_mean_motion_dot": -1.4e-07,
        "meta_mean_motion_ddot": 0,
        "tle_line1": "1 36112U 09070B   25355.07677743 -.00000014  00000+0  00000+0 0  9994",
        "tle_line2": "2 36112  64.8901  76.9001 0004535 162.2695  22.1351  2.13101099124630"
      },
      "geometry": {
        "type": "Point",
        "coordinates": [
          131.1627642381147,
          60.025465287778864
        ]
      }
    },
    {
      "type": "Feature",
      "properties": {
        "norad_id": 36402,
        "name": "COSMOS 2460 (732)",
        "group": "glo-ops",
        "lat": 60.371562016946434,
        "lon": 13.63711089782731,
        "alt_km": 19128.739255552922,
        "timestamp": "2025-12-21T09:37:22.915586+00:00",
        "meta_object_name": "COSMOS 2460 (732)",
        "meta_object_id": "2010-007C",
        "meta_epoch": "2025-12-19T13:42:43.098624",
        "meta_mean_motion": 2.131063,
        "meta_eccentricity": 0.0002543,
        "meta_inclination": 65.526,
        "meta_ra_of_asc_node": 320.5423,
        "meta_arg_of_pericenter": 279.9868,
        "meta_mean_anomaly": 189.087,
        "meta_ephemeris_type": 0,
        "meta_classification_type": "U",
        "meta_norad_cat_id": 36402,
        "meta_element_set_no": 999,
        "meta_rev_at_epoch": 12290,
        "meta_bstar": 0,
        "meta_mean_motion_dot": -5.7e-07,
        "meta_mean_motion_ddot": 0,
        "tle_line1": "1 36402U 10007C   25353.57133216 -.00000057  00000+0  00000+0 0  9990",
        "tle_line2": "2 36402  65.5260 320.5423 0002543 279.9868 189.0870  2.13106300122906"
      },
      "geometry": {
        "type": "Point",
        "coordinates": [
          13.63711089782731,
          60.371562016946434
        ]
      }
    }
  ]
}